[{"OBJECT_NAME":"STARLINK-1975","OBJECT_ID":"2021-009AB","EPOCH":"2026-03-09T22:00:01.999584","MEAN_MOTION":15.77661104,"ECCENTRICITY":0.0004759,"INCLINATION":53.0518,"RA_OF_ASC_NODE":307.9346,"ARG_OF_PERICENTER":123.581,"MEAN_ANOMALY":224.1672,"EPHEMERIS_TYPE":0,"CLASSIFICATION_TYPE":"U","NORAD_CAT_ID":47573,"ELEMENT_SET_NO":999,"REV_AT_EPOCH":585,"BSTAR":0.00062457323,"MEAN_MOTION_DOT":0.00107302,"MEAN_MOTION_DDOT":0},{"OBJECT_NAME":"STARLINK-36571","OBJECT_ID":"2026-016U","EPOCH":"2026-03-09T16:51:53.183232","MEAN_MOTION":15.75195804,"ECCENTRICITY":0.00011663,"INCLINATION":97.2846,"RA_OF_ASC_NODE":129.1636,"ARG_OF_PERICENTER":100.0704,"MEAN_ANOMALY":260.0693,"EPHEMERIS_TYPE":0,"CLASSIFICATION_TYPE":"U","NORAD_CAT_ID":67579,"ELEMENT_SET_NO":999,"REV_AT_EPOCH":680,"BSTAR":0.0019709913,"MEAN_MOTION_DOT":0.00304672,"MEAN_MOTION_DDOT":0}]
